CCSDS_OMM_VERS = 2.0
CREATION_DATE  = 
ORIGINATOR     = 

OBJECT_NAME    = ELECTRON KICK STAGE R/B
OBJECT_ID      = 2026-019C
CENTER_NAME    = EARTH
REF_FRAME      = TEME
TIME_SYSTEM    = UTC
MEAN_ELEMENT_THEORY = SGP/SGP4

EPOCH          = 2026-01-31T18:14:22.606368
MEAN_MOTION    = 15.53913180
ECCENTRICITY   = .020782
INCLINATION    = 97.4031
RA_OF_ASC_NODE = 156.7817
ARG_OF_PERICENTER = 255.9499
MEAN_ANOMALY   = 101.8576

EPHEMERIS_TYPE = 0
CLASSIFICATION_TYPE = U
NORAD_CAT_ID   = 67616
ELEMENT_SET_NO = 999
REV_AT_EPOCH   = 26
BSTAR          = .21952E-3
MEAN_MOTION_DOT = .37009E-3
MEAN_MOTION_DDOT = .25655E-5

